[{"OBJECT_NAME":"ONEWEB-0323","OBJECT_ID":"2021-075AH","EPOCH":"2025-10-28T12:12:08.431488","MEAN_MOTION":13.12441675,"ECCENTRICITY":0.00014288,"INCLINATION":87.8971,"RA_OF_ASC_NODE":36.6677,"ARG_OF_PERICENTER":77.8012,"MEAN_ANOMALY":282.3277,"EPHEMERIS_TYPE":0,"CLASSIFICATION_TYPE":"U","NORAD_CAT_ID":49106,"ELEMENT_SET_NO":999,"REV_AT_EPOCH":20416,"BSTAR":0.00027690089,"MEAN_MOTION_DOT":1.12e-6,"MEAN_MOTION_DDOT":0},{"OBJECT_NAME":"ONEWEB-0329","OBJECT_ID":"2021-075AJ","EPOCH":"2025-10-28T13:50:11.833440","MEAN_MOTION":13.17652031,"ECCENTRICITY":0.00017119,"INCLINATION":87.9113,"RA_OF_ASC_NODE":51.9338,"ARG_OF_PERICENTER":95.0349,"MEAN_ANOMALY":265.0978,"EPHEMERIS_TYPE":0,"CLASSIFICATION_TYPE":"U","NORAD_CAT_ID":49107,"ELEMENT_SET_NO":999,"REV_AT_EPOCH":20308,"BSTAR":0.00017146317,"MEAN_MOTION_DOT":7.9e-7,"MEAN_MOTION_DDOT":0},{"OBJECT_NAME":"ONEWEB-0330","OBJECT_ID":"2021-075AK","EPOCH":"2025-10-28T13:51:24.336864","MEAN_MOTION":13.17648755,"ECCENTRICITY":0.00018774,"INCLINATION":87.9114,"RA_OF_ASC_NODE":51.9385,"ARG_OF_PERICENTER":94.0085,"MEAN_ANOMALY":266.1261,"EPHEMERIS_TYPE":0,"CLASSIFICATION_TYPE":"U","NORAD_CAT_ID":49108,"ELEMENT_SET_NO":999,"REV_AT_EPOCH":20312,"BSTAR":0.00035922659,"MEAN_MOTION_DOT":1.52e-6,"MEAN_MOTION_DDOT":0},{"OBJECT_NAME":"ONEWEB-0292","OBJECT_ID":"2021-083A","EPOCH":"2025-10-28T04:54:52.196256","MEAN_MOTION":13.13468243,"ECCENTRICITY":0.00016682,"INCLINATION":87.9029,"RA_OF_ASC_NODE":6.3688,"ARG_OF_PERICENTER":96.6467,"MEAN_ANOMALY":263.4852,"EPHEMERIS_TYPE":0,"CLASSIFICATION_TYPE":"U","NORAD_CAT_ID":49186,"ELEMENT_SET_NO":999,"REV_AT_EPOCH":20047,"BSTAR":-0.00062891696,"MEAN_MOTION_DOT":-2.17e-6,"MEAN_MOTION_DDOT":0},{"OBJECT_NAME":"ONEWEB-0303","OBJECT_ID":"2021-083B","EPOCH":"2025-10-28T12:01:54.090336","MEAN_MOTION":13.18686615,"ECCENTRICITY":0.00016775,"INCLINATION":87.9227,"RA_OF_ASC_NODE":21.4689,"ARG_OF_PERICENTER":96.6235,"MEAN_ANOMALY":263.5089,"EPHEMERIS_TYPE":0,"CLASSIFICATION_TYPE":"U","NORAD_CAT_ID":49187,"ELEMENT_SET_NO":999,"REV_AT_EPOCH":19944,"BSTAR":0.0001361465,"MEAN_MOTION_DOT":6.7e-7,"MEAN_MOTION_DDOT":0},{"OBJECT_NAME":"ONEWEB-0306","OBJECT_ID":"2021-083C","EPOCH":"2025-10-28T11:47:39.136416","MEAN_MOTION":13.18686221,"ECCENTRICITY":0.00020111,"INCLINATION":87.9228,"RA_OF_ASC_NODE":21.456,"ARG_OF_PERICENTER":103.5663,"MEAN_ANOMALY":256.5693,"EPHEMERIS_TYPE":0,"CLASSIFICATION_TYPE":"U","NORAD_CAT_ID":49188,"ELEMENT_SET_NO":999,"REV_AT_EPOCH":19948,"BSTAR":0.00017976197,"MEAN_MOTION_DOT":8.4e-7,"MEAN_MOTION_DDOT":0},{"OBJECT_NAME":"ONEWEB-0307","OBJECT_ID":"2021-083D","EPOCH":"2025-10-28T10:15:26.439840","MEAN_MOTION":13.13469701,"ECCENTRICITY":0.0001808,"INCLINATION":87.902,"RA_OF_ASC_NODE":6.3181,"ARG_OF_PERICENTER":100.7743,"MEAN_ANOMALY":259.359,"EPHEMERIS_TYPE":0,"CLASSIFICATION_TYPE":"U","NORAD_CAT_ID":49189,"ELEMENT_SET_NO":999,"REV_AT_EPOCH":20050,"BSTAR":-0.00019934935,"MEAN_MOTION_DOT":-6.0e-7,"MEAN_MOTION_DDOT":0},{"OBJECT_NAME":"ONEWEB-0320","OBJECT_ID":"2021-083E","EPOCH":"2025-10-28T11:57:28.758528","MEAN_MOTION":13.18606864,"ECCENTRICITY":0.00018257,"INCLINATION":87.9229,"RA_OF_ASC_NODE":21.4835,"ARG_OF_PERICENTER":101.0274,"MEAN_ANOMALY":259.1063,"EPHEMERIS_TYPE":0,"CLASSIFICATION_TYPE":"U","NORAD_CAT_ID":49190,"ELEMENT_SET_NO":999,"REV_AT_EPOCH":19944,"BSTAR":0.00019058744,"MEAN_MOTION_DOT":8.8e-7,"MEAN_MOTION_DDOT":0},{"OBJECT_NAME":"ONEWEB-0321","OBJECT_ID":"2021-083F","EPOCH":"2025-10-28T11:03:43.282368","MEAN_MOTION":13.20771236,"ECCENTRICITY":0.00021665,"INCLINATION":87.9202,"RA_OF_ASC_NODE":320.6481,"ARG_OF_PERICENTER":98.913,"MEAN_ANOMALY":261.2248,"EPHEMERIS_TYPE":0,"CLASSIFICATION_TYPE":"U","NORAD_CAT_ID":49191,"ELEMENT_SET_NO":999,"REV_AT_EPOCH":20624,"BSTAR":0.0002145404,"MEAN_MOTION_DOT":1.0e-6,"MEAN_MOTION_DDOT":0},{"OBJECT_NAME":"ONEWEB-0322","OBJECT_ID":"2021-083G","EPOCH":"2025-10-28T13:48:43.291584","MEAN_MOTION":13.13471654,"ECCENTRICITY":0.0002151,"INCLINATION":87.9026,"RA_OF_ASC_NODE":6.2891,"ARG_OF_PERICENTER":111.6126,"MEAN_ANOMALY":248.5233,"EPHEMERIS_TYPE":0,"CLASSIFICATION_TYPE":"U","NORAD_CAT_ID":49192,"ELEMENT_SET_NO":999,"REV_AT_EPOCH":20051,"BSTAR":9.4491036e-5,"MEAN_MOTION_DOT":4.7e-7,"MEAN_MOTION_DDOT":0},{"OBJECT_NAME":"ONEWEB-0324","OBJECT_ID":"2021-083H","EPOCH":"2025-10-28T11:38:08.978496","MEAN_MOTION":13.18685775,"ECCENTRICITY":0.00019491,"INCLINATION":87.9229,"RA_OF_ASC_NODE":21.4647,"ARG_OF_PERICENTER":96.5173,"MEAN_ANOMALY":263.6181,"EPHEMERIS_TYPE":0,"CLASSIFICATION_TYPE":"U","NORAD_CAT_ID":49193,"ELEMENT_SET_NO":999,"REV_AT_EPOCH":19946,"BSTAR":0.00019492696,"MEAN_MOTION_DOT":9.0e-7,"MEAN_MOTION_DDOT":0},{"OBJECT_NAME":"ONEWEB-0325","OBJECT_ID":"2021-083J","EPOCH":"2025-10-28T11:42:53.443584","MEAN_MOTION":13.18688192,"ECCENTRICITY":0.00023299,"INCLINATION":87.9226,"RA_OF_ASC_NODE":21.4843,"ARG_OF_PERICENTER":99.1824,"MEAN_ANOMALY":260.9572,"EPHEMERIS_TYPE":0,"CLASSIFICATION_TYPE":"U","NORAD_CAT_ID":49194,"ELEMENT_SET_NO":999,"REV_AT_EPOCH":19947,"BSTAR":0.0016430094,"MEAN_MOTION_DOT":6.61e-6,"MEAN_MOTION_DDOT":0},{"OBJECT_NAME":"ONEWEB-0326","OBJECT_ID":"2021-083K","EPOCH":"2025-10-28T12:04:27.795936","MEAN_MOTION":13.18685992,"ECCENTRICITY":0.00015266,"INCLINATION":87.9226,"RA_OF_ASC_NODE":21.4668,"ARG_OF_PERICENTER":97.315,"MEAN_ANOMALY":262.8156,"EPHEMERIS_TYPE":0,"CLASSIFICATION_TYPE":"U","NORAD_CAT_ID":49195,"ELEMENT_SET_NO":999,"REV_AT_EPOCH":19946,"BSTAR":0.00012437717,"MEAN_MOTION_DOT":6.2e-7,"MEAN_MOTION_DDOT":0},{"OBJECT_NAME":"ONEWEB-0327","OBJECT_ID":"2021-083L","EPOCH":"2025-10-28T12:04:04.892160","MEAN_MOTION":13.18686804,"ECCENTRICITY":0.00014347,"INCLINATION":87.9218,"RA_OF_ASC_NODE":21.4899,"ARG_OF_PERICENTER":101.216,"MEAN_ANOMALY":258.9133,"EPHEMERIS_TYPE":0,"CLASSIFICATION_TYPE":"U","NORAD_CAT_ID":49196,"ELEMENT_SET_NO":999,"REV_AT_EPOCH":19948,"BSTAR":0.00017692994,"MEAN_MOTION_DOT":8.3e-7,"MEAN_MOTION_DDOT":0},{"OBJECT_NAME":"ONEWEB-0328","OBJECT_ID":"2021-083M","EPOCH":"2025-10-28T09:54:43.092000","MEAN_MOTION":13.13468467,"ECCENTRICITY":0.00019005,"INCLINATION":87.9043,"RA_OF_ASC_NODE":6.2633,"ARG_OF_PERICENTER":95.9533,"MEAN_ANOMALY":264.1813,"EPHEMERIS_TYPE":0,"CLASSIFICATION_TYPE":"U","NORAD_CAT_ID":49197,"ELEMENT_SET_NO":999,"REV_AT_EPOCH":20047,"BSTAR":0.00069531088,"MEAN_MOTION_DOT":2.67e-6,"MEAN_MOTION_DDOT":0},{"OBJECT_NAME":"ONEWEB-0331","OBJECT_ID":"2021-083N","EPOCH":"2025-10-28T11:54:46.708416","MEAN_MOTION":13.18685932,"ECCENTRICITY":0.00016326,"INCLINATION":87.9225,"RA_OF_ASC_NODE":21.4606,"ARG_OF_PERICENTER":90.6769,"MEAN_ANOMALY":269.455,"EPHEMERIS_TYPE":0,"CLASSIFICATION_TYPE":"U","NORAD_CAT_ID":49198,"ELEMENT_SET_NO":999,"REV_AT_EPOCH":19947,"BSTAR":3.9576949e-5,"MEAN_MOTION_DOT":2.9e-7,"MEAN_MOTION_DDOT":0},{"OBJECT_NAME":"ONEWEB-0333","OBJECT_ID":"2021-083P","EPOCH":"2025-10-28T11:37:05.958336","MEAN_MOTION":13.13471875,"ECCENTRICITY":0.00018032,"INCLINATION":87.9022,"RA_OF_ASC_NODE":6.3097,"ARG_OF_PERICENTER":102.9065,"MEAN_ANOMALY":257.2266,"EPHEMERIS_TYPE":0,"CLASSIFICATION_TYPE":"U","NORAD_CAT_ID":49199,"ELEMENT_SET_NO":999,"REV_AT_EPOCH":20049,"BSTAR":0.0010775715,"MEAN_MOTION_DOT":4.06e-6,"MEAN_MOTION_DDOT":0}]
