ONEWEB-0323             
1 49106U 21075AH  25301.50843092  .00000112  00000+0  27690-3 0  9997
2 49106  87.8971  36.6677 0001428  77.8012 282.3277 13.12441675204165
ONEWEB-0329             
1 49107U 21075AJ  25301.57652585  .00000079  00000+0  17146-3 0  9997
2 49107  87.9113  51.9338 0001711  95.0349 265.0978 13.17652031203080
ONEWEB-0330             
1 49108U 21075AK  25301.57736501  .00000152  00000+0  35923-3 0  9994
2 49108  87.9114  51.9385 0001877  94.0085 266.1261 13.17648755203123
ONEWEB-0292             
1 49186U 21083A   25301.20477079 -.00000217  00000+0 -62892-3 0  9990
2 49186  87.9029   6.3688 0001668  96.6467 263.4852 13.13468243200473
ONEWEB-0303             
1 49187U 21083B   25301.50132049  .00000067  00000+0  13615-3 0  9999
2 49187  87.9227  21.4689 0001677  96.6235 263.5089 13.18686615199443
ONEWEB-0306             
1 49188U 21083C   25301.49142519  .00000084  00000+0  17976-3 0  9994
2 49188  87.9228  21.4560 0002011 103.5663 256.5693 13.18686221199489
ONEWEB-0307             
1 49189U 21083D   25301.42738935 -.00000060  00000+0 -19935-3 0  9994
2 49189  87.9020   6.3181 0001808 100.7743 259.3590 13.13469701200502
ONEWEB-0320             
1 49190U 21083E   25301.49824952  .00000088  00000+0  19059-3 0  9993
2 49190  87.9229  21.4835 0001825 101.0274 259.1063 13.18606864199442
ONEWEB-0321             
1 49191U 21083F   25301.46091762  .00000100  00000+0  21454-3 0  9993
2 49191  87.9202 320.6481 0002166  98.9130 261.2248 13.20771236206244
ONEWEB-0322             
1 49192U 21083G   25301.57550106  .00000047  00000+0  94491-4 0  9990
2 49192  87.9026   6.2891 0002151 111.6126 248.5233 13.13471654200512
ONEWEB-0324             
1 49193U 21083H   25301.48482614  .00000090  00000+0  19493-3 0  9995
2 49193  87.9229  21.4647 0001949  96.5173 263.6181 13.18685775199460
ONEWEB-0325             
1 49194U 21083J   25301.48811856  .00000661  00000+0  16430-2 0  9991
2 49194  87.9226  21.4843 0002329  99.1824 260.9572 13.18688192199472
ONEWEB-0326             
1 49195U 21083K   25301.50309949  .00000062  00000+0  12438-3 0  9990
2 49195  87.9226  21.4668 0001526  97.3150 262.8156 13.18685992199461
ONEWEB-0327             
1 49196U 21083L   25301.50283440  .00000083  00000+0  17693-3 0  9999
2 49196  87.9218  21.4899 0001434 101.2160 258.9133 13.18686804199489
ONEWEB-0328             
1 49197U 21083M   25301.41299875  .00000267  00000+0  69531-3 0  9991
2 49197  87.9043   6.2633 0001900  95.9533 264.1813 13.13468467200478
ONEWEB-0331             
1 49198U 21083N   25301.49637394  .00000029  00000+0  39577-4 0  9996
2 49198  87.9225  21.4606 0001632  90.6769 269.4550 13.18685932199471
ONEWEB-0333             
1 49199U 21083P   25301.48409674  .00000406  00000+0  10776-2 0  9991
2 49199  87.9022   6.3097 0001803 102.9065 257.2266 13.13471875200497
